{
  "norad_id": 68907,
  "name": "STARLINK-37551",
  "history": [
    {
      "epoch": "2026-05-04T18:00:02.000160Z",
      "apogee_km": 278.06017744127894,
      "perigee_km": 276.15012294417375,
      "latitude_deg": -57.703453670237224,
      "longitude_deg": -4.569283319666086,
      "height_km": 300.2728536989814,
      "semi_major_axis_km": 6655.242150192726,
      "eccentricity": 0.0001435,
      "inclination_deg": 97.2867,
      "raan_deg": 319.6781,
      "arg_perigee_deg": 95.5542,
      "mean_anomaly_deg": 142.6415,
      "mean_motion_rev_day": 15.99031316
    }
  ]
}