{"generatedAt":"2026-05-05T08:19:47.084492Z","satellites":[{"name":"STARLINK-37551","tle1":"1 68907U 26097N   26124.75002315 -.02164632  13705-2 -45618-2 0  9992","tle2":"2 68907  97.2867 319.6781 0001435  95.5542 142.6415 15.99031316  1944"}]}